0 DELTA 1 DEB
1 12165U 78026E   13282.38997084  .00000116  00000-0  89277-4 0  4004
2 12165 098.7218 263.4100 0042790 296.1317 234.9725 14.10026846466829
0 DELTA 1 DEB
1 12165U 78026E   13283.45308927  .00000182  00000-0  12671-3 0  4012
2 12165 098.7219 264.4409 0042772 293.0498 231.5389 14.10026339466971
0 DELTA 1 DEB
1 12165U 78026E   13286.20077728  .00000165  00000-0  11700-3 0  4035
2 12165 098.7221 267.1052 0042731 285.0686 139.2670 14.10027536467364
0 DELTA 1 DEB
1 12165U 78026E   13287.48730075  .00000067  00000-0  61932-4 0  4042
2 12165 098.7224 268.3525 0042704 281.3317 189.8756 14.10029075467541
0 DELTA 1 DEB
1 12165U 78026E   13288.76684178 -.00000013  00000-0  16672-4 0  4050
2 12165 098.7226 269.5930 0042737 277.5960 205.0669 14.10030534467729
0 DELTA 1 DEB
1 12165U 78026E   13289.81979670 -.00000071  00000-0 -15625-4 0  4064
2 12165 098.7229 270.6139 0042750 274.5403 150.0507 14.10031198467873
0 DELTA 1 DEB
1 12165U 78026E   13291.11056321 -.00000065  00000-0 -12084-4 0  4079
2 12165 098.7231 271.8655 0042768 270.7859 222.2231 14.10031038468054
0 DELTA 1 DEB
1 12165U 78026E   13292.17418609  .00000011  00000-0  30354-4 0  4087
2 12165 098.7234 272.8968 0042781 267.7049 221.3623 14.10030306468206
0 DELTA 1 DEB
1 12165U 78026E   13293.51181490  .00000147  00000-0  10677-3 0  4097
2 12165 098.7236 274.1939 0042815 263.8132 171.4210 14.10029493468391
0 DELTA 1 DEB
1 12165U 78026E   13294.51197068  .00000227  00000-0  15149-3 0  4106
2 12165 098.7237 275.1638 0042819 260.9173 208.3860 14.10029149468531
0 DELTA 1 DEB
1 12165U 78026E   13296.20632301  .00000273  00000-0  17750-3 0  4110
2 12165 098.7238 276.8071 0042864 255.9826 169.2377 14.10029667468779
